{
    "links": {
        "self": "http://www.neowsapp.com/rest/v1/neo/3698503?api_key=iIulBulltgU6a56xZRHN4H3l9WmuAYTsLGpBGhQ2"
    },
    "id": "3698503",
    "neo_reference_id": "3698503",
    "name": "(2014 HA197)",
    "designation": "2014 HA197",
    "nasa_jpl_url": "http://ssd.jpl.nasa.gov/sbdb.cgi?sstr=3698503",
    "absolute_magnitude_h": 24.3,
    "estimated_diameter": {
        "kilometers": {
            "estimated_diameter_min": 0.0366906138,
            "estimated_diameter_max": 0.0820427065
        },
        "meters": {
            "estimated_diameter_min": 36.6906137531,
            "estimated_diameter_max": 82.0427064882
        },
        "miles": {
            "estimated_diameter_min": 0.0227984834,
            "estimated_diameter_max": 0.0509789586
        },
        "feet": {
            "estimated_diameter_min": 120.3760332259,
            "estimated_diameter_max": 269.1689931548
        }
    },
    "is_potentially_hazardous_asteroid": false,
    "close_approach_data": [
        {
            "close_approach_date": "2014-05-03",
            "close_approach_date_full": "2014-May-03 06:39",
            "epoch_date_close_approach": 1399099140000,
            "relative_velocity": {
                "kilometers_per_second": "11.6084102767",
                "kilometers_per_hour": "41790.2769961924",
                "miles_per_hour": "25966.8529479952"
            },
            "miss_distance": {
                "astronomical": "0.3142290034",
                "lunar": "122.2350823226",
                "kilometers": "47007989.600862758",
                "miles": "29209410.2796237404"
            },
            "orbiting_body": "Earth"
        }
    ],
    "orbital_data": {
        "orbit_id": "6",
        "orbit_determination_date": "2017-04-06 08:41:00",
        "first_observation_date": "2014-04-23",
        "last_observation_date": "2014-04-26",
        "data_arc_in_days": 3,
        "observations_used": 31,
        "orbit_uncertainty": "9",
        "minimum_orbit_intersection": ".282913",
        "jupiter_tisserand_invariant": "4.822",
        "epoch_osculation": "2456772.5",
        "eccentricity": ".1233128756457225",
        "semi_major_axis": "1.336015628164362",
        "inclination": "22.71837009138354",
        "ascending_node_longitude": "213.4134540945279",
        "orbital_period": "564.0475724188994",
        "perihelion_distance": "1.171267699147788",
        "perihelion_argument": "96.40251245052139",
        "aphelion_distance": "1.500763557180935",
        "perihelion_time": "2456898.395239353832",
        "mean_anomaly": "279.6481141244587",
        "mean_motion": ".6382440375661079",
        "equinox": "J2000",
        "orbit_class": {
            "orbit_class_type": "AMO",
            "orbit_class_description": "Near-Earth asteroid orbits similar to that of 1221 Amor",
            "orbit_class_range": "1.017 AU < q (perihelion) < 1.3 AU"
        }
    },
    "is_sentry_object": false
}